STARLINK-32382          
1 61258U 24175R   26068.56579388 -.00001393  00000+0 -34919-4 0  9991
2 61258  53.1598 194.6837 0001075  81.8402 278.2720 15.30201487 81434
TEVEL2-1                
1 63217U 25052H   26068.64782323  .00020683  00000+0  70600-3 0  9994
2 63217  97.3991 324.7682 0004767 104.8919 255.2849 15.30341923 54855
